ONEWEB-0537             
1 56046U 23043A   26177.16223882 -.00000029  00000+0 -10938-3 0  9994
2 56046  87.9089 226.9895 0002292  95.0589 265.0804 13.16594908160149
ONEWEB-0538             
1 56047U 23043B   26177.15590378 -.00000037  00000+0 -13057-3 0  9995
2 56047  87.9094 226.9932 0002226 102.0320 258.1060 13.16594858160159
ONEWEB-0546             
1 56048U 23043C   26177.14323709  .00000067  00000+0  14092-3 0  9998
2 56048  87.9094 226.9955 0002704  89.3177 270.8264 13.16595809160146
ONEWEB-0547             
1 56049U 23043D   26177.18030249  .00000092  00000+0  19102-3 0  9992
2 56049  87.9251 242.1852 0002092 103.4727 256.6640 13.21826439159417
ONEWEB-0548             
1 56050U 23043E   26177.16777051  .00000022  00000+0  24725-4 0  9992
2 56050  87.9088 226.9868 0001833  84.5471 275.5869 13.16593505160145
ONEWEB-0549             
1 56051U 23043F   26177.17441992 -.00000040  00000+0 -12900-3 0  9999
2 56051  87.9247 242.1924 0002279 106.4466 253.6919 13.21826197159412
ONEWEB-0550             
1 56052U 23043G   26177.16097209  .00000083  00000+0  17052-3 0  9995
2 56052  87.9250 242.1927 0001882  94.5796 265.5553 13.21826356159415
ONEWEB-0551             
1 56053U 23043H   26176.67364316  .00000160  00000+0  38997-3 0  9994
2 56053  87.8999 257.5357 0002108 109.8879 250.2479 13.15550097157512
ONEWEB-0552             
1 56054U 23043J   26177.15589953 -.00000119  00000+0 -32069-3 0  9995
2 56054  87.9247 242.1991 0001869 102.3061 257.8282 13.21824921159411
ONEWEB-0553             
1 56055U 23043K   26177.14956875  .00000024  00000+0  29636-4 0  9996
2 56055  87.9090 226.9947 0002350  88.9957 271.1443 13.16595587160156
ONEWEB-0554             
1 56056U 23043L   26176.68092912  .00000041  00000+0  73855-4 0  9999
2 56056  87.9090 227.0966 0001774  82.9236 277.2096 13.16595861160070
ONEWEB-0555             
1 56057U 23043M   26177.17489015 -.00000002  00000+0 -38198-4 0  9999
2 56057  87.9092 226.9871 0002572  88.4611 271.6815 13.16592779160141
ONEWEB-0557             
1 56058U 23043N   26177.11315110  .00000140  00000+0  33356-3 0  9999
2 56058  87.9089 227.0090 0002317  63.3779 296.7589 13.16594792160139
ONEWEB-0558             
1 56059U 23043P   26177.14917199  .00000038  00000+0  59330-4 0  9995
2 56059  87.9251 242.1955 0002273 104.2549 255.8838 13.21824467159424
ONEWEB-0559             
1 56060U 23043Q   26176.68321562  .00000047  00000+0  82080-4 0  9996
2 56060  87.9250 242.2835 0002029 105.1106 255.0253 13.21825928159371
ONEWEB-0566             
1 56061U 23043R   26176.67649551  .00000034  00000+0  51557-4 0  9998
2 56061  87.9250 242.2829 0002062 108.0322 252.1037 13.21827174159355
ONEWEB-0568             
1 56062U 23043S   26177.13057440  .00000175  00000+0  42434-3 0  9990
2 56062  87.9088 226.9953 0002272  91.4035 268.7356 13.16595185160156
ONEWEB-0574             
1 56063U 23043T   26177.12395616  .00000044  00000+0  73892-4 0  9998
2 56063  87.9259 242.1976 0002006  92.8921 267.2442 13.21824506159455
ONEWEB-0575             
1 56064U 23043U   26177.12424517  .00000117  00000+0  27125-3 0  9990
2 56064  87.9090 226.9929 0002097  84.0512 276.0858 13.16594666160148
ONEWEB-0576             
1 56065U 23043V   26177.18123544  .00000153  00000+0  36620-3 0  9993
2 56065  87.9092 226.9897 0002118  90.1307 270.0067 13.16594823160140
ONEWEB-0577             
1 56066U 23043W   26177.18757914  .00000033  00000+0  52249-4 0  9991
2 56066  87.9091 226.9859 0001900  73.6923 286.4417 13.16593618160170
ONEWEB-0578             
1 56067U 23043X   26177.18619852 -.00000021  00000+0 -81602-4 0  9994
2 56067  87.9250 242.1824 0002307  92.8900 267.2498 13.21825252159420
ONEWEB-0579             
1 56068U 23043Y   26177.17778510  .00000039  00000+0  62771-4 0  9994
2 56068  87.9258 242.1815 0001861 103.9572 256.1768 13.21827227159434
ONEWEB-0581             
1 56069U 23043Z   26177.19390392  .00000015  00000+0  65888-5 0  9992
2 56069  87.9090 226.9959 0001812  80.2789 279.8546 13.16592432160148
ONEWEB-0609             
1 56070U 23043AA  26177.15613626 -.00000016  00000+0 -77111-4 0  9992
2 56070  87.8998 257.4252 0002043 101.2227 258.9133 13.15549409157612
ONEWEB-0613             
1 56071U 23043AB  26177.15375795  .00000016  00000+0  83216-5 0  9997
2 56071  87.9000 257.4375 0001909 107.6497 252.4842 13.15546620157611
ONEWEB-0630             
1 56072U 23043AC  26176.69267244  .00000016  00000+0  85408-5 0  9990
2 56072  87.9009 257.5016 0001919 105.9866 254.1475 13.15547215157540
ONEWEB-0632             
1 56073U 23043AD  26177.14426372  .00000113  00000+0  26638-3 0  9997
2 56073  87.9001 257.4292 0001903  95.9753 264.1594 13.15549142157605
ONEWEB-0633             
1 56074U 23043AE  26176.68158044  .00000168  00000+0  41264-3 0  9996
2 56074  87.9008 257.4974 0002038 112.4369 247.6977 13.15547755157528
ONEWEB-0634             
1 56075U 23043AF  26176.66732157  .00000139  00000+0  33563-3 0  9999
2 56075  87.8996 257.5398 0002337  99.6353 260.5042 13.15549080157515
ONEWEB-0635             
1 56076U 23043AG  26177.19496058  .00000002  00000+0 -28465-4 0  9992
2 56076  87.9008 257.3980 0001877  93.0142 267.1203 13.15546998157616
