OBJECT_NAME,OBJECT_ID,EPOCH,MEAN_MOTION,ECCENTRICITY,INCLINATION,RA_OF_ASC_NODE,ARG_OF_PERICENTER,MEAN_ANOMALY,EPHEMERIS_TYPE,CLASSIFICATION_TYPE,NORAD_CAT_ID,ELEMENT_SET_NO,REV_AT_EPOCH,BSTAR,MEAN_MOTION_DOT,MEAN_MOTION_DDOT
ONEWEB-0537,2023-043A,2026-06-26T03:53:37.434048,13.16594908,.0002292,87.9089,226.9895,95.0589,265.0804,0,U,56046,999,16014,-.10938E-3,-.29E-6,0
ONEWEB-0538,2023-043B,2026-06-26T03:44:30.086592,13.16594858,.0002226,87.9094,226.9932,102.0320,258.1060,0,U,56047,999,16015,-.13057E-3,-.37E-6,0
ONEWEB-0546,2023-043C,2026-06-26T03:26:15.684576,13.16595809,.0002704,87.9094,226.9955,89.3177,270.8264,0,U,56048,999,16014,.14092E-3,.67E-6,0
ONEWEB-0547,2023-043D,2026-06-26T04:19:38.135136,13.21826439,.0002092,87.9251,242.1852,103.4727,256.6640,0,U,56049,999,15941,.19102E-3,.92E-6,0
ONEWEB-0548,2023-043E,2026-06-26T04:01:35.372064,13.16593505,.0001833,87.9088,226.9868,84.5471,275.5869,0,U,56050,999,16014,.24725E-4,.22E-6,0
ONEWEB-0549,2023-043F,2026-06-26T04:11:09.881088,13.21826197,.0002279,87.9247,242.1924,106.4466,253.6919,0,U,56051,999,15941,-.129E-3,-.4E-6,0
ONEWEB-0550,2023-043G,2026-06-26T03:51:47.988576,13.21826356,.0001882,87.9250,242.1927,94.5796,265.5553,0,U,56052,999,15941,.17052E-3,.83E-6,0
ONEWEB-0551,2023-043H,2026-06-25T16:10:02.769024,13.15550097,.0002108,87.8999,257.5357,109.8879,250.2479,0,U,56053,999,15751,.38997E-3,.16E-5,0
ONEWEB-0552,2023-043J,2026-06-26T03:44:29.719392,13.21824921,.0001869,87.9247,242.1991,102.3061,257.8282,0,U,56054,999,15941,-.32069E-3,-.119E-5,0
ONEWEB-0553,2023-043K,2026-06-26T03:35:22.740000,13.16595587,.000235,87.9090,226.9947,88.9957,271.1443,0,U,56055,999,16015,.29636E-4,.24E-6,0
ONEWEB-0554,2023-043L,2026-06-25T16:20:32.275968,13.16595861,.0001774,87.9090,227.0966,82.9236,277.2096,0,U,56056,999,16007,.73855E-4,.41E-6,0
ONEWEB-0555,2023-043M,2026-06-26T04:11:50.508960,13.16592779,.0002572,87.9092,226.9871,88.4611,271.6815,0,U,56057,999,16014,-.38198E-4,-.2E-7,0
ONEWEB-0557,2023-043N,2026-06-26T02:42:56.255040,13.16594792,.0002317,87.9089,227.0090,63.3779,296.7589,0,U,56058,999,16013,.33356E-3,.14E-5,0
ONEWEB-0558,2023-043P,2026-06-26T03:34:48.459936,13.21824467,.0002273,87.9251,242.1955,104.2549,255.8838,0,U,56059,999,15942,.5933E-4,.38E-6,0
ONEWEB-0559,2023-043Q,2026-06-25T16:23:49.829568,13.21825928,.0002029,87.9250,242.2835,105.1106,255.0253,0,U,56060,999,15937,.8208E-4,.47E-6,0
ONEWEB-0566,2023-043R,2026-06-25T16:14:09.212064,13.21827174,.0002062,87.9250,242.2829,108.0322,252.1037,0,U,56061,999,15935,.51557E-4,.34E-6,0
ONEWEB-0568,2023-043S,2026-06-26T03:08:01.628160,13.16595185,.0002272,87.9088,226.9953,91.4035,268.7356,0,U,56062,999,16015,.42434E-3,.175E-5,0
ONEWEB-0574,2023-043T,2026-06-26T02:58:29.812224,13.21824506,.0002006,87.9259,242.1976,92.8921,267.2442,0,U,56063,999,15945,.73892E-4,.44E-6,0
ONEWEB-0575,2023-043U,2026-06-26T02:58:54.782688,13.16594666,.0002097,87.9090,226.9929,84.0512,276.0858,0,U,56064,999,16014,.27125E-3,.117E-5,0
ONEWEB-0576,2023-043V,2026-06-26T04:20:58.742016,13.16594823,.0002118,87.9092,226.9897,90.1307,270.0067,0,U,56065,999,16014,.3662E-3,.153E-5,0
ONEWEB-0577,2023-043W,2026-06-26T04:30:06.837696,13.16593618,.00019,87.9091,226.9859,73.6923,286.4417,0,U,56066,999,16017,.52249E-4,.33E-6,0
ONEWEB-0578,2023-043X,2026-06-26T04:28:07.552128,13.21825252,.0002307,87.9250,242.1824,92.8900,267.2498,0,U,56067,999,15942,-.81602E-4,-.21E-6,0
ONEWEB-0579,2023-043Y,2026-06-26T04:16:00.632640,13.21827227,.0001861,87.9258,242.1815,103.9572,256.1768,0,U,56068,999,15943,.62771E-4,.39E-6,0
ONEWEB-0581,2023-043Z,2026-06-26T04:39:13.298688,13.16592432,.0001812,87.9090,226.9959,80.2789,279.8546,0,U,56069,999,16014,.65888E-5,.15E-6,0
ONEWEB-0609,2023-043AA,2026-06-26T03:44:50.172864,13.15549409,.0002043,87.8998,257.4252,101.2227,258.9133,0,U,56070,999,15761,-.77111E-4,-.16E-6,0
ONEWEB-0613,2023-043AB,2026-06-26T03:41:24.686880,13.15546620,.0001909,87.9000,257.4375,107.6497,252.4842,0,U,56071,999,15761,.83216E-5,.16E-6,0
ONEWEB-0630,2023-043AC,2026-06-25T16:37:26.898816,13.15547215,.0001919,87.9009,257.5016,105.9866,254.1475,0,U,56072,999,15754,.85408E-5,.16E-6,0
ONEWEB-0632,2023-043AD,2026-06-26T03:27:44.385408,13.15549142,.0001903,87.9001,257.4292,95.9753,264.1594,0,U,56073,999,15760,.26638E-3,.113E-5,0
ONEWEB-0633,2023-043AE,2026-06-25T16:21:28.550016,13.15547755,.0002038,87.9008,257.4974,112.4369,247.6977,0,U,56074,999,15752,.41264E-3,.168E-5,0
ONEWEB-0634,2023-043AF,2026-06-25T16:00:56.583648,13.15549080,.0002337,87.8996,257.5398,99.6353,260.5042,0,U,56075,999,15751,.33563E-3,.139E-5,0
ONEWEB-0635,2023-043AG,2026-06-26T04:40:44.594112,13.15546998,.0001877,87.9008,257.3980,93.0142,267.1203,0,U,56076,999,15761,-.28465E-4,.2E-7,0
